ATLAS CENTAUR R/B       
1 06155U 72065B   25354.43133503  .00000882  00000+0  12419-3 0  9995
2 06155  35.0023  50.1414 0033291  63.0466 297.3629 14.77428189829536
SL-8 R/B                
1 08459U 75112B   25354.48237932  .00000250  00000+0  90917-4 0  9995
2 08459  74.0590 164.6161 0016667 275.1595  84.7657 14.38150192620489
SL-3 R/B                
1 10114U 77057B   25354.40827899  .00009418  00000+0  21476-3 0  9993
2 10114  97.5682 158.0358 0006958 201.3242 158.7717 15.43117156656094
SEASAT 1                
1 10967U 78064A   25354.43008102  .00000193  00000+0  92622-4 0  9992
2 10967 108.0129 319.1685 0001429 252.9013 107.1976 14.46069014495056
SL-14 R/B               
1 11267U 79011B   25354.50176310  .00000435  00000+0  40570-4 0  9998
2 11267  82.5232 171.6823 0015233 326.7827  33.2435 14.91778193516976
SL-8 R/B                
1 11574U 79089B   25354.11934439  .00000201  00000+0  68883-4 0  9993
2 11574  74.0683 238.3213 0014592  69.6027 290.6695 14.42288210424639
SL-14 R/B               
1 11672U 80005B   25354.06012527  .00000428  00000+0  40816-4 0  9998
2 11672  82.5142  22.7564 0017289  71.2609 289.0485 14.90799473464620
SL-8 R/B                
1 12139U 81003B   25354.43930421  .00011565  00000+0  30553-3 0  9999
2 12139  82.9313   3.1174 0278590  93.7795 269.5333 15.07246485302728
SL-3 R/B                
1 12465U 81046B   25354.49306860  .00007902  00000+0  19780-3 0  9997
2 12465  81.2320  24.6621 0018337 296.2342  63.7015 15.39754263426231
SL-3 R/B                
1 12904U 81103B   25354.36074764  .00004727  00000+0  21597-3 0  9991
2 12904  81.1596 306.4270 0012291 185.2301 174.8804 15.20314717961172
SL-3 R/B                
1 13068U 82013B   25354.40564782  .00003746  00000+0  16576-3 0  9994
2 13068  81.1752 253.6364 0024209  86.3436 274.0563 15.21147885392294
SL-3 R/B                
1 13154U 82039B   25354.39470219  .00002016  00000+0  12292-3 0  9997
2 13154  81.1714 307.2899 0029429 226.2729 133.6059 15.09565468369679
