CCSDS_OMM_VERS = 2.0
CREATION_DATE  = 
ORIGINATOR     = 

OBJECT_NAME    = ATLAS CENTAUR R/B
OBJECT_ID      = 1972-065B
CENTER_NAME    = EARTH
REF_FRAME      = TEME
TIME_SYSTEM    = UTC
MEAN_ELEMENT_THEORY = SGP/SGP4

EPOCH          = 2025-12-20T10:21:07.346592
MEAN_MOTION    = 14.77428189
ECCENTRICITY   = .0033291
INCLINATION    = 35.0023
RA_OF_ASC_NODE = 50.1414
ARG_OF_PERICENTER = 63.0466
MEAN_ANOMALY   = 297.3629

EPHEMERIS_TYPE = 0
CLASSIFICATION_TYPE = U
NORAD_CAT_ID   = 6155
ELEMENT_SET_NO = 999
REV_AT_EPOCH   = 82953
BSTAR          = .12419E-3
MEAN_MOTION_DOT = .882E-5
MEAN_MOTION_DDOT = 0

CCSDS_OMM_VERS = 2.0
CREATION_DATE  = 
ORIGINATOR     = 

OBJECT_NAME    = SL-8 R/B
OBJECT_ID      = 1975-112B
CENTER_NAME    = EARTH
REF_FRAME      = TEME
TIME_SYSTEM    = UTC
MEAN_ELEMENT_THEORY = SGP/SGP4

EPOCH          = 2025-12-20T11:34:37.573248
MEAN_MOTION    = 14.38150192
ECCENTRICITY   = .0016667
INCLINATION    = 74.0590
RA_OF_ASC_NODE = 164.6161
ARG_OF_PERICENTER = 275.1595
MEAN_ANOMALY   = 84.7657

EPHEMERIS_TYPE = 0
CLASSIFICATION_TYPE = U
NORAD_CAT_ID   = 8459
ELEMENT_SET_NO = 999
REV_AT_EPOCH   = 62048
BSTAR          = .90917E-4
MEAN_MOTION_DOT = .25E-5
MEAN_MOTION_DDOT = 0

CCSDS_OMM_VERS = 2.0
CREATION_DATE  = 
ORIGINATOR     = 

OBJECT_NAME    = SL-3 R/B
OBJECT_ID      = 1977-057B
CENTER_NAME    = EARTH
REF_FRAME      = TEME
TIME_SYSTEM    = UTC
MEAN_ELEMENT_THEORY = SGP/SGP4

EPOCH          = 2025-12-20T09:47:55.304736
MEAN_MOTION    = 15.43117156
ECCENTRICITY   = .0006958
INCLINATION    = 97.5682
RA_OF_ASC_NODE = 158.0358
ARG_OF_PERICENTER = 201.3242
MEAN_ANOMALY   = 158.7717

EPHEMERIS_TYPE = 0
CLASSIFICATION_TYPE = U
NORAD_CAT_ID   = 10114
ELEMENT_SET_NO = 999
REV_AT_EPOCH   = 65609
BSTAR          = .21476E-3
MEAN_MOTION_DOT = .9418E-4
MEAN_MOTION_DDOT = 0

CCSDS_OMM_VERS = 2.0
CREATION_DATE  = 
ORIGINATOR     = 

OBJECT_NAME    = SEASAT 1
OBJECT_ID      = 1978-064A
CENTER_NAME    = EARTH
REF_FRAME      = TEME
TIME_SYSTEM    = UTC
MEAN_ELEMENT_THEORY = SGP/SGP4

EPOCH          = 2025-12-20T10:19:19.000128
MEAN_MOTION    = 14.46069014
ECCENTRICITY   = .0001429
INCLINATION    = 108.0129
RA_OF_ASC_NODE = 319.1685
ARG_OF_PERICENTER = 252.9013
MEAN_ANOMALY   = 107.1976

EPHEMERIS_TYPE = 0
CLASSIFICATION_TYPE = U
NORAD_CAT_ID   = 10967
ELEMENT_SET_NO = 999
REV_AT_EPOCH   = 49505
BSTAR          = .92622E-4
MEAN_MOTION_DOT = .193E-5
MEAN_MOTION_DDOT = 0

CCSDS_OMM_VERS = 2.0
CREATION_DATE  = 
ORIGINATOR     = 

OBJECT_NAME    = SL-14 R/B
OBJECT_ID      = 1979-011B
CENTER_NAME    = EARTH
REF_FRAME      = TEME
TIME_SYSTEM    = UTC
MEAN_ELEMENT_THEORY = SGP/SGP4

EPOCH          = 2025-12-20T12:02:32.331840
MEAN_MOTION    = 14.91778193
ECCENTRICITY   = .0015233
INCLINATION    = 82.5232
RA_OF_ASC_NODE = 171.6823
ARG_OF_PERICENTER = 326.7827
MEAN_ANOMALY   = 33.2435

EPHEMERIS_TYPE = 0
CLASSIFICATION_TYPE = U
NORAD_CAT_ID   = 11267
ELEMENT_SET_NO = 999
REV_AT_EPOCH   = 51697
BSTAR          = .4057E-4
MEAN_MOTION_DOT = .435E-5
MEAN_MOTION_DDOT = 0

CCSDS_OMM_VERS = 2.0
CREATION_DATE  = 
ORIGINATOR     = 

OBJECT_NAME    = SL-8 R/B
OBJECT_ID      = 1979-089B
CENTER_NAME    = EARTH
REF_FRAME      = TEME
TIME_SYSTEM    = UTC
MEAN_ELEMENT_THEORY = SGP/SGP4

EPOCH          = 2025-12-20T02:51:51.355296
MEAN_MOTION    = 14.42288210
ECCENTRICITY   = .00145926
INCLINATION    = 74.0683
RA_OF_ASC_NODE = 238.3213
ARG_OF_PERICENTER = 69.6027
MEAN_ANOMALY   = 290.6695

EPHEMERIS_TYPE = 0
CLASSIFICATION_TYPE = U
NORAD_CAT_ID   = 11574
ELEMENT_SET_NO = 999
REV_AT_EPOCH   = 42463
BSTAR          = .68882538E-4
MEAN_MOTION_DOT = .201E-5
MEAN_MOTION_DDOT = 0

CCSDS_OMM_VERS = 2.0
CREATION_DATE  = 
ORIGINATOR     = 

OBJECT_NAME    = SL-14 R/B
OBJECT_ID      = 1980-005B
CENTER_NAME    = EARTH
REF_FRAME      = TEME
TIME_SYSTEM    = UTC
MEAN_ELEMENT_THEORY = SGP/SGP4

EPOCH          = 2025-12-20T01:26:34.823328
MEAN_MOTION    = 14.90799473
ECCENTRICITY   = .0017289
INCLINATION    = 82.5142
RA_OF_ASC_NODE = 22.7564
ARG_OF_PERICENTER = 71.2609
MEAN_ANOMALY   = 289.0485

EPHEMERIS_TYPE = 0
CLASSIFICATION_TYPE = U
NORAD_CAT_ID   = 11672
ELEMENT_SET_NO = 999
REV_AT_EPOCH   = 46462
BSTAR          = .4081605E-4
MEAN_MOTION_DOT = .428E-5
MEAN_MOTION_DDOT = 0

CCSDS_OMM_VERS = 2.0
CREATION_DATE  = 
ORIGINATOR     = 

OBJECT_NAME    = SL-8 R/B
OBJECT_ID      = 1981-003B
CENTER_NAME    = EARTH
REF_FRAME      = TEME
TIME_SYSTEM    = UTC
MEAN_ELEMENT_THEORY = SGP/SGP4

EPOCH          = 2025-12-20T10:32:35.883744
MEAN_MOTION    = 15.07246485
ECCENTRICITY   = .027859
INCLINATION    = 82.9313
RA_OF_ASC_NODE = 3.1174
ARG_OF_PERICENTER = 93.7795
MEAN_ANOMALY   = 269.5333

EPHEMERIS_TYPE = 0
CLASSIFICATION_TYPE = U
NORAD_CAT_ID   = 12139
ELEMENT_SET_NO = 999
REV_AT_EPOCH   = 30272
BSTAR          = .30553E-3
MEAN_MOTION_DOT = .11565E-3
MEAN_MOTION_DDOT = 0

CCSDS_OMM_VERS = 2.0
CREATION_DATE  = 
ORIGINATOR     = 

OBJECT_NAME    = SL-3 R/B
OBJECT_ID      = 1981-046B
CENTER_NAME    = EARTH
REF_FRAME      = TEME
TIME_SYSTEM    = UTC
MEAN_ELEMENT_THEORY = SGP/SGP4

EPOCH          = 2025-12-20T11:50:01.127040
MEAN_MOTION    = 15.39754263
ECCENTRICITY   = .0018337
INCLINATION    = 81.2320
RA_OF_ASC_NODE = 24.6621
ARG_OF_PERICENTER = 296.2342
MEAN_ANOMALY   = 63.7015

EPHEMERIS_TYPE = 0
CLASSIFICATION_TYPE = U
NORAD_CAT_ID   = 12465
ELEMENT_SET_NO = 999
REV_AT_EPOCH   = 42623
BSTAR          = .1978E-3
MEAN_MOTION_DOT = .7902E-4
MEAN_MOTION_DDOT = 0

CCSDS_OMM_VERS = 2.0
CREATION_DATE  = 
ORIGINATOR     = 

OBJECT_NAME    = SL-3 R/B
OBJECT_ID      = 1981-103B
CENTER_NAME    = EARTH
REF_FRAME      = TEME
TIME_SYSTEM    = UTC
MEAN_ELEMENT_THEORY = SGP/SGP4

EPOCH          = 2025-12-20T08:39:28.596096
MEAN_MOTION    = 15.20314717
ECCENTRICITY   = .0012291
INCLINATION    = 81.1596
RA_OF_ASC_NODE = 306.4270
ARG_OF_PERICENTER = 185.2301
MEAN_ANOMALY   = 174.8804

EPHEMERIS_TYPE = 0
CLASSIFICATION_TYPE = U
NORAD_CAT_ID   = 12904
ELEMENT_SET_NO = 999
REV_AT_EPOCH   = 96117
BSTAR          = .21597E-3
MEAN_MOTION_DOT = .4727E-4
MEAN_MOTION_DDOT = 0

CCSDS_OMM_VERS = 2.0
CREATION_DATE  = 
ORIGINATOR     = 

OBJECT_NAME    = SL-3 R/B
OBJECT_ID      = 1982-013B
CENTER_NAME    = EARTH
REF_FRAME      = TEME
TIME_SYSTEM    = UTC
MEAN_ELEMENT_THEORY = SGP/SGP4

EPOCH          = 2025-12-20T09:44:07.971648
MEAN_MOTION    = 15.21147885
ECCENTRICITY   = .0024209
INCLINATION    = 81.1752
RA_OF_ASC_NODE = 253.6364
ARG_OF_PERICENTER = 86.3436
MEAN_ANOMALY   = 274.0563

EPHEMERIS_TYPE = 0
CLASSIFICATION_TYPE = U
NORAD_CAT_ID   = 13068
ELEMENT_SET_NO = 999
REV_AT_EPOCH   = 39229
BSTAR          = .16576E-3
MEAN_MOTION_DOT = .3746E-4
MEAN_MOTION_DDOT = 0

CCSDS_OMM_VERS = 2.0
CREATION_DATE  = 
ORIGINATOR     = 

OBJECT_NAME    = SL-3 R/B
OBJECT_ID      = 1982-039B
CENTER_NAME    = EARTH
REF_FRAME      = TEME
TIME_SYSTEM    = UTC
MEAN_ELEMENT_THEORY = SGP/SGP4

EPOCH          = 2025-12-20T09:28:22.269216
MEAN_MOTION    = 15.09565468
ECCENTRICITY   = .0029429
INCLINATION    = 81.1714
RA_OF_ASC_NODE = 307.2899
ARG_OF_PERICENTER = 226.2729
MEAN_ANOMALY   = 133.6059

EPHEMERIS_TYPE = 0
CLASSIFICATION_TYPE = U
NORAD_CAT_ID   = 13154
ELEMENT_SET_NO = 999
REV_AT_EPOCH   = 36967
BSTAR          = .12292E-3
MEAN_MOTION_DOT = .2016E-4
MEAN_MOTION_DDOT = 0

